[{"OBJECT_NAME":"QIANKUN-1","OBJECT_ID":"2023-103B","EPOCH":"2026-03-04T12:56:19.761504","MEAN_MOTION":16.08867585,"ECCENTRICITY":0.00261815,"INCLINATION":96.194,"RA_OF_ASC_NODE":115.4027,"ARG_OF_PERICENTER":168.6193,"MEAN_ANOMALY":191.5691,"EPHEMERIS_TYPE":0,"CLASSIFICATION_TYPE":"U","NORAD_CAT_ID":57422,"ELEMENT_SET_NO":999,"REV_AT_EPOCH":15048,"BSTAR":1.111934e-6,"MEAN_MOTION_DOT":4.77e-6,"MEAN_MOTION_DDOT":1.685644e-6},{"OBJECT_NAME":"OBJECT B","OBJECT_ID":"2023-104B","EPOCH":"2026-03-04T14:10:02.027136","MEAN_MOTION":15.93578004,"ECCENTRICITY":0.00024132,"INCLINATION":97.2682,"RA_OF_ASC_NODE":152.0063,"ARG_OF_PERICENTER":316.8392,"MEAN_ANOMALY":43.2693,"EPHEMERIS_TYPE":0,"CLASSIFICATION_TYPE":"U","NORAD_CAT_ID":57425,"ELEMENT_SET_NO":999,"REV_AT_EPOCH":14726,"BSTAR":0.00088950978,"MEAN_MOTION_DOT":0.00317106,"MEAN_MOTION_DDOT":4.0646582e-5},{"OBJECT_NAME":"OBJECT B","OBJECT_ID":"2024-085B","EPOCH":"2026-03-04T14:38:21.257664","MEAN_MOTION":15.93962889,"ECCENTRICITY":0.00087411,"INCLINATION":97.3356,"RA_OF_ASC_NODE":155.5699,"ARG_OF_PERICENTER":297.4899,"MEAN_ANOMALY":62.5487,"EPHEMERIS_TYPE":0,"CLASSIFICATION_TYPE":"U","NORAD_CAT_ID":59678,"ELEMENT_SET_NO":999,"REV_AT_EPOCH":10260,"BSTAR":0.0014892143,"MEAN_MOTION_DOT":0.00543491,"MEAN_MOTION_DDOT":0.00012113543},{"OBJECT_NAME":"RUZAEVKA 390 (RS44S)","OBJECT_ID":"2024-199AH","EPOCH":"2026-03-04T15:00:26.502336","MEAN_MOTION":16.04477918,"ECCENTRICITY":0.00020628,"INCLINATION":97.2845,"RA_OF_ASC_NODE":305.5833,"ARG_OF_PERICENTER":162.5617,"MEAN_ANOMALY":197.5736,"EPHEMERIS_TYPE":0,"CLASSIFICATION_TYPE":"U","NORAD_CAT_ID":61766,"ELEMENT_SET_NO":999,"REV_AT_EPOCH":11871,"BSTAR":0.0018610375,"MEAN_MOTION_DOT":0.01207871,"MEAN_MOTION_DDOT":0.00082877288},{"OBJECT_NAME":"SZ-19 DEB","OBJECT_ID":"2024-194E","EPOCH":"2026-03-04T12:31:18.514848","MEAN_MOTION":16.1444091,"ECCENTRICITY":0.00127989,"INCLINATION":41.4587,"RA_OF_ASC_NODE":194.6819,"ARG_OF_PERICENTER":10.4591,"MEAN_ANOMALY":349.6531,"EPHEMERIS_TYPE":0,"CLASSIFICATION_TYPE":"U","NORAD_CAT_ID":63801,"ELEMENT_SET_NO":999,"REV_AT_EPOCH":4838,"BSTAR":0.00050476235,"MEAN_MOTION_DOT":0.00682303,"MEAN_MOTION_DDOT":0.00027248706},{"OBJECT_NAME":"COSMOS 2591","OBJECT_ID":"2025-182A","EPOCH":"2026-03-04T11:39:30.254112","MEAN_MOTION":15.96328012,"ECCENTRICITY":0.00069506,"INCLINATION":96.5896,"RA_OF_ASC_NODE":356.8341,"ARG_OF_PERICENTER":170.4176,"MEAN_ANOMALY":189.7236,"EPHEMERIS_TYPE":0,"CLASSIFICATION_TYPE":"U","NORAD_CAT_ID":65267,"ELEMENT_SET_NO":999,"REV_AT_EPOCH":3099,"BSTAR":0.00015831715,"MEAN_MOTION_DOT":0.00065052,"MEAN_MOTION_DDOT":3.464732e-6},{"OBJECT_NAME":"COSMOS 2592","OBJECT_ID":"2025-182B","EPOCH":"2026-03-04T13:32:17.967840","MEAN_MOTION":15.96255072,"ECCENTRICITY":0.00049309,"INCLINATION":96.5938,"RA_OF_ASC_NODE":356.8672,"ARG_OF_PERICENTER":173.8132,"MEAN_ANOMALY":186.3208,"EPHEMERIS_TYPE":0,"CLASSIFICATION_TYPE":"U","NORAD_CAT_ID":65268,"ELEMENT_SET_NO":999,"REV_AT_EPOCH":3100,"BSTAR":1.2464431e-5,"MEAN_MOTION_DOT":4.555e-5,"MEAN_MOTION_DDOT":1.863581e-6},{"OBJECT_NAME":"COSMOS 2593","OBJECT_ID":"2025-182C","EPOCH":"2026-03-04T10:54:22.377888","MEAN_MOTION":15.96384031,"ECCENTRICITY":0.00077464,"INCLINATION":96.5891,"RA_OF_ASC_NODE":356.7294,"ARG_OF_PERICENTER":174.7439,"MEAN_ANOMALY":185.3922,"EPHEMERIS_TYPE":0,"CLASSIFICATION_TYPE":"U","NORAD_CAT_ID":65269,"ELEMENT_SET_NO":999,"REV_AT_EPOCH":3098,"BSTAR":6.4760448e-5,"MEAN_MOTION_DOT":0.00026363,"MEAN_MOTION_DDOT":2.121759e-6},{"OBJECT_NAME":"COSMOS 2594","OBJECT_ID":"2025-182D","EPOCH":"2026-03-04T14:17:29.051232","MEAN_MOTION":15.96377165,"ECCENTRICITY":0.00069396,"INCLINATION":96.5901,"RA_OF_ASC_NODE":356.8385,"ARG_OF_PERICENTER":168.311,"MEAN_ANOMALY":191.8331,"EPHEMERIS_TYPE":0,"CLASSIFICATION_TYPE":"U","NORAD_CAT_ID":65270,"ELEMENT_SET_NO":999,"REV_AT_EPOCH":3102,"BSTAR":0.00027580147,"MEAN_MOTION_DOT":0.00114059,"MEAN_MOTION_DDOT":6.825216e-6},{"OBJECT_NAME":"ISS OBJECT XK","OBJECT_ID":"1998-067XK","EPOCH":"2026-03-04T07:18:37.757952","MEAN_MOTION":16.07142396,"ECCENTRICITY":0.00055034,"INCLINATION":51.6153,"RA_OF_ASC_NODE":75.0298,"ARG_OF_PERICENTER":61.4486,"MEAN_ANOMALY":298.7081,"EPHEMERIS_TYPE":0,"CLASSIFICATION_TYPE":"U","NORAD_CAT_ID":65731,"ELEMENT_SET_NO":999,"REV_AT_EPOCH":2603,"BSTAR":0.0014637024,"MEAN_MOTION_DOT":0.01169756,"MEAN_MOTION_DDOT":0.00080723506},{"OBJECT_NAME":"BOTAN","OBJECT_ID":"1998-067XP","EPOCH":"2026-03-03T07:18:10.975680","MEAN_MOTION":16.26065139,"ECCENTRICITY":0.00029265,"INCLINATION":51.604,"RA_OF_ASC_NODE":82.5602,"ARG_OF_PERICENTER":46.9281,"MEAN_ANOMALY":313.1984,"EPHEMERIS_TYPE":0,"CLASSIFICATION_TYPE":"U","NORAD_CAT_ID":65942,"ELEMENT_SET_NO":999,"REV_AT_EPOCH":2259,"BSTAR":0.0014502781,"MEAN_MOTION_DOT":0.04760636,"MEAN_MOTION_DDOT":1.2040774e-5},{"OBJECT_NAME":"CZ-4B R/B","OBJECT_ID":"2025-289B","EPOCH":"2026-03-04T14:46:47.852832","MEAN_MOTION":16.29295503,"ECCENTRICITY":0.00238461,"INCLINATION":97.5011,"RA_OF_ASC_NODE":141.9716,"ARG_OF_PERICENTER":43.4926,"MEAN_ANOMALY":316.8242,"EPHEMERIS_TYPE":0,"CLASSIFICATION_TYPE":"U","NORAD_CAT_ID":66989,"ELEMENT_SET_NO":999,"REV_AT_EPOCH":1353,"BSTAR":0.00074003196,"MEAN_MOTION_DOT":0.0327879,"MEAN_MOTION_DDOT":2.551533e-6},{"OBJECT_NAME":"STARLINK-36618","OBJECT_ID":"2026-033AC","EPOCH":"2026-03-04T12:00:00.999648","MEAN_MOTION":15.95649324,"ECCENTRICITY":0.00024025,"INCLINATION":42.9854,"RA_OF_ASC_NODE":301.3372,"ARG_OF_PERICENTER":267.8333,"MEAN_ANOMALY":58.5987,"EPHEMERIS_TYPE":0,"CLASSIFICATION_TYPE":"U","NORAD_CAT_ID":67847,"ELEMENT_SET_NO":999,"REV_AT_EPOCH":383,"BSTAR":-0.0024572657,"MEAN_MOTION_DOT":-0.0102747,"MEAN_MOTION_DDOT":0.00032923924},{"OBJECT_NAME":"STARLINK-36818","OBJECT_ID":"2026-035A","EPOCH":"2026-03-04T12:00:00.999648","MEAN_MOTION":15.98686519,"ECCENTRICITY":0.00011307,"INCLINATION":97.2777,"RA_OF_ASC_NODE":355.4295,"ARG_OF_PERICENTER":105.0934,"MEAN_ANOMALY":210.6744,"EPHEMERIS_TYPE":0,"CLASSIFICATION_TYPE":"U","NORAD_CAT_ID":67879,"ELEMENT_SET_NO":999,"REV_AT_EPOCH":292,"BSTAR":-0.002202112,"MEAN_MOTION_DOT":-0.01033108,"MEAN_MOTION_DDOT":0.00034310793},{"OBJECT_NAME":"STARLINK-36821","OBJECT_ID":"2026-035B","EPOCH":"2026-03-04T12:00:00.999648","MEAN_MOTION":15.98853539,"ECCENTRICITY":0.00011189,"INCLINATION":97.2773,"RA_OF_ASC_NODE":355.4325,"ARG_OF_PERICENTER":109.7916,"MEAN_ANOMALY":212.3689,"EPHEMERIS_TYPE":0,"CLASSIFICATION_TYPE":"U","NORAD_CAT_ID":67880,"ELEMENT_SET_NO":999,"REV_AT_EPOCH":292,"BSTAR":-0.0022021767,"MEAN_MOTION_DOT":-0.01042707,"MEAN_MOTION_DDOT":0.0003496805}]
