QIANKUN-1               
1 57422U 23103B   26063.53911761  .00000477  16856-5  11119-5 0  9996
2 57422  96.1940 115.4027 0026181 168.6193 191.5691 16.08867585150487
OBJECT B                
1 57425U 23104B   26063.59030124  .00317106  40647-4  88951-3 0  9991
2 57425  97.2682 152.0063 0002413 316.8392  43.2693 15.93578004147267
OBJECT B                
1 59678U 24085B   26063.60996826  .00543491  12114-3  14892-2 0  9991
2 59678  97.3356 155.5699 0008741 297.4899  62.5487 15.93962889102609
RUZAEVKA 390 (RS44S)    
1 61766U 24199AH  26063.62530674  .01207871  82877-3  18610-2 0  9990
2 61766  97.2845 305.5833 0002062 162.5617 197.5736 16.04477918118711
SZ-19 DEB               
1 63801U 24194E   26063.52174207  .00682303  27249-3  50476-3 0  9997
2 63801  41.4587 194.6819 0012798  10.4591 349.6531 16.14440910 48388
COSMOS 2591             
1 65267U 25182A   26063.48576683  .00065052  34647-5  15832-3 0  9997
2 65267  96.5896 356.8341 0006950 170.4176 189.7236 15.96328012 30991
COSMOS 2592             
1 65268U 25182B   26063.56409685  .00004555  18636-5  12464-4 0  9994
2 65268  96.5938 356.8672 0004930 173.8132 186.3208 15.96255072 31001
COSMOS 2593             
1 65269U 25182C   26063.45442567  .00026363  21218-5  64760-4 0  9996
2 65269  96.5891 356.7294 0007746 174.7439 185.3922 15.96384031 30983
COSMOS 2594             
1 65270U 25182D   26063.59547513  .00114059  68252-5  27580-3 0  9997
2 65270  96.5901 356.8385 0006939 168.3110 191.8331 15.96377165 31029
ISS OBJECT XK           
1 65731U 98067XK  26063.30460368  .01169756  80724-3  14637-2 0  9991
2 65731  51.6153  75.0298 0005503  61.4486 298.7081 16.07142396 26033
BOTAN                   
1 65942U 98067XP  26062.30429370  .04760636  12041-4  14503-2 0  9999
2 65942  51.6040  82.5602 0002926  46.9281 313.1984 16.26065139 22592
CZ-4B R/B               
1 66989U 25289B   26063.61583163  .03278790  25515-5  74003-3 0  9990
2 66989  97.5011 141.9716 0023846  43.4926 316.8242 16.29295503 13533
STARLINK-36618          
1 67847U 26033AC  26063.50001157 -.01027470  32924-3 -24573-2 0  9991
2 67847  42.9854 301.3372 0002402 267.8333  58.5987 15.95649324  3839
STARLINK-36818          
1 67879U 26035A   26063.50001157 -.01033108  34311-3 -22021-2 0  9991
2 67879  97.2777 355.4295 0001130 105.0934 210.6744 15.98686519  2923
STARLINK-36821          
1 67880U 26035B   26063.50001157 -.01042707  34968-3 -22022-2 0  9997
2 67880  97.2773 355.4325 0001118 109.7916 212.3689 15.98853539  2927
